{
  "type": "FeatureCollection",
  "features": [
    {
      "type": "Feature",
      "properties": {
        "norad_id": 35152,
        "name": "FENGYUN 1C DEB",
        "group": "fengyun-1c-debris",
        "lat": -7.838056095901273,
        "lon": -175.23291761967565,
        "alt_km": 840.3162363652209,
        "timestamp": "2025-12-26T06:43:29.799188+00:00",
        "meta_object_name": "FENGYUN 1C DEB",
        "meta_object_id": "1999-025DMG",
        "meta_epoch": "2025-12-24T11:08:58.902432",
        "meta_mean_motion": 13.76447569,
        "meta_eccentricity": 0.0194175,
        "meta_inclination": 99.8191,
        "meta_ra_of_asc_node": 181.5284,
        "meta_arg_of_pericenter": 345.1491,
        "meta_mean_anomaly": 14.4005,
        "meta_ephemeris_type": 0,
        "meta_classification_type": "U",
        "meta_norad_cat_id": 35152,
        "meta_element_set_no": 999,
        "meta_rev_at_epoch": 62354,
        "meta_bstar": 0.00059063629,
        "meta_mean_motion_dot": 6.15e-06,
        "meta_mean_motion_ddot": 0,
        "tle_line1": "1 35152U 99025DMG 25358.46457063  .00000615  00000+0  59064-3 0  9997",
        "tle_line2": "2 35152  99.8191 181.5284 0194175 345.1491  14.4005 13.76447569623544"
      },
      "geometry": {
        "type": "Point",
        "coordinates": [
          -175.23291761967565,
          -7.838056095901273
        ]
      }
    },
    {
      "type": "Feature",
      "properties": {
        "norad_id": 35153,
        "name": "FENGYUN 1C DEB",
        "group": "fengyun-1c-debris",
        "lat": -80.43609198048252,
        "lon": 4.936940106970983,
        "alt_km": 739.4737449381637,
        "timestamp": "2025-12-26T06:43:29.799202+00:00",
        "meta_object_name": "FENGYUN 1C DEB",
        "meta_object_id": "1999-025DMH",
        "meta_epoch": "2025-12-25T09:57:58.794912",
        "meta_mean_motion": 14.73808932,
        "meta_eccentricity": 0.017077,
        "meta_inclination": 98.9016,
        "meta_ra_of_asc_node": 252.4543,
        "meta_arg_of_pericenter": 43.8096,
        "meta_mean_anomaly": 317.6511,
        "meta_ephemeris_type": 0,
        "meta_classification_type": "U",
        "meta_norad_cat_id": 35153,
        "meta_element_set_no": 999,
        "meta_rev_at_epoch": 97404,
        "meta_bstar": 0.00043864,
        "meta_mean_motion_dot": 3.556e-05,
        "meta_mean_motion_ddot": 0,
        "tle_line1": "1 35153U 99025DMH 25359.41526383  .00003556  00000+0  43864-3 0  9994",
        "tle_line2": "2 35153  98.9016 252.4543 0170770  43.8096 317.6511 14.73808932974042"
      },
      "geometry": {
        "type": "Point",
        "coordinates": [
          4.936940106970983,
          -80.43609198048252
        ]
      }
    },
    {
      "type": "Feature",
      "properties": {
        "norad_id": 35154,
        "name": "FENGYUN 1C DEB",
        "group": "fengyun-1c-debris",
        "lat": 62.68622274600273,
        "lon": 103.85662666777961,
        "alt_km": 756.490170709706,
        "timestamp": "2025-12-26T06:43:29.799212+00:00",
        "meta_object_name": "FENGYUN 1C DEB",
        "meta_object_id": "1999-025DMJ",
        "meta_epoch": "2025-12-24T01:58:11.654976",
        "meta_mean_motion": 14.18912921,
        "meta_eccentricity": 0.0178909,
        "meta_inclination": 99.4221,
        "meta_ra_of_asc_node": 120.2762,
        "meta_arg_of_pericenter": 10.5644,
        "meta_mean_anomaly": 349.921,
        "meta_ephemeris_type": 0,
        "meta_classification_type": "U",
        "meta_norad_cat_id": 35154,
        "meta_element_set_no": 999,
        "meta_rev_at_epoch": 64738,
        "meta_bstar": 0.00026986372,
        "meta_mean_motion_dot": 6.08e-06,
        "meta_mean_motion_ddot": 0,
        "tle_line1": "1 35154U 99025DMJ 25358.08207934  .00000608  00000+0  26986-3 0  9996",
        "tle_line2": "2 35154  99.4221 120.2762 0178909  10.5644 349.9210 14.18912921647385"
      },
      "geometry": {
        "type": "Point",
        "coordinates": [
          103.85662666777961,
          62.68622274600273
        ]
      }
    },
    {
      "type": "Feature",
      "properties": {
        "norad_id": 35155,
        "name": "FENGYUN 1C DEB",
        "group": "fengyun-1c-debris",
        "lat": -21.16396498980337,
        "lon": -171.918793073393,
        "alt_km": 850.9974807676153,
        "timestamp": "2025-12-26T06:43:29.799222+00:00",
        "meta_object_name": "FENGYUN 1C DEB",
        "meta_object_id": "1999-025DMK",
        "meta_epoch": "2025-12-24T18:15:01.567584",
        "meta_mean_motion": 14.19312867,
        "meta_eccentricity": 0.00258689,
        "meta_inclination": 98.5001,
        "meta_ra_of_asc_node": 9.9422,
        "meta_arg_of_pericenter": 39.4189,
        "meta_mean_anomaly": 320.8864,
        "meta_ephemeris_type": 0,
        "meta_classification_type": "U",
        "meta_norad_cat_id": 35155,
        "meta_element_set_no": 999,
        "meta_rev_at_epoch": 72884,
        "meta_bstar": 0.00057480531,
        "meta_mean_motion_dot": 1.169e-05,
        "meta_mean_motion_ddot": 0,
        "tle_line1": "1 35155U 99025DMK 25358.76043481  .00001169  00000+0  57481-3 0  9994",
        "tle_line2": "2 35155  98.5001   9.9422 0025868  39.4189 320.8864 14.19312867728845"
      },
      "geometry": {
        "type": "Point",
        "coordinates": [
          -171.918793073393,
          -21.16396498980337
        ]
      }
    },
    {
      "type": "Feature",
      "properties": {
        "norad_id": 35156,
        "name": "FENGYUN 1C DEB",
        "group": "fengyun-1c-debris",
        "lat": -39.81163347727283,
        "lon": 158.96941424080887,
        "alt_km": 872.8540181963235,
        "timestamp": "2025-12-26T06:43:29.799233+00:00",
        "meta_object_name": "FENGYUN 1C DEB",
        "meta_object_id": "1999-025DML",
        "meta_epoch": "2025-12-22T09:45:46.789920",
        "meta_mean_motion": 14.10637167,
        "meta_eccentricity": 0.00374137,
        "meta_inclination": 98.7528,
        "meta_ra_of_asc_node": 342.5755,
        "meta_arg_of_pericenter": 121.1131,
        "meta_mean_anomaly": 239.3719,
        "meta_ephemeris_type": 0,
        "meta_classification_type": "U",
        "meta_norad_cat_id": 35156,
        "meta_element_set_no": 999,
        "meta_rev_at_epoch": 64180,
        "meta_bstar": 0.00031397822,
        "meta_mean_motion_dot": 5.21e-06,
        "meta_mean_motion_ddot": 0,
        "tle_line1": "1 35156U 99025DML 25356.40679155  .00000521  00000+0  31398-3 0  9997",
        "tle_line2": "2 35156  98.7528 342.5755 0037413 121.1131 239.3719 14.10637167641809"
      },
      "geometry": {
        "type": "Point",
        "coordinates": [
          158.96941424080887,
          -39.81163347727283
        ]
      }
    },
    {
      "type": "Feature",
      "properties": {
        "norad_id": 35159,
        "name": "FENGYUN 1C DEB",
        "group": "fengyun-1c-debris",
        "lat": 31.43397864510398,
        "lon": -98.5082549889623,
        "alt_km": 732.4178995207449,
        "timestamp": "2025-12-26T06:43:29.799243+00:00",
        "meta_object_name": "FENGYUN 1C DEB",
        "meta_object_id": "1999-025DMP",
        "meta_epoch": "2025-12-23T17:16:37.371936",
        "meta_mean_motion": 14.45286937,
        "meta_eccentricity": 0.00094944,
        "meta_inclination": 98.8378,
        "meta_ra_of_asc_node": 73.3712,
        "meta_arg_of_pericenter": 158.5401,
        "meta_mean_anomaly": 355.5286,
        "meta_ephemeris_type": 0,
        "meta_classification_type": "U",
        "meta_norad_cat_id": 35159,
        "meta_element_set_no": 999,
        "meta_rev_at_epoch": 61639,
        "meta_bstar": 0.0019831289,
        "meta_mean_motion_dot": 6.923e-05,
        "meta_mean_motion_ddot": 0,
        "tle_line1": "1 35159U 99025DMP 25357.71987699  .00006923  00000+0  19831-2 0  9999",
        "tle_line2": "2 35159  98.8378  73.3712 0009494 158.5401 355.5286 14.45286937616399"
      },
      "geometry": {
        "type": "Point",
        "coordinates": [
          -98.5082549889623,
          31.43397864510398
        ]
      }
    },
    {
      "type": "Feature",
      "properties": {
        "norad_id": 35160,
        "name": "FENGYUN 1C DEB",
        "group": "fengyun-1c-debris",
        "lat": 42.2098981967123,
        "lon": -56.03430248881369,
        "alt_km": 708.9294895968478,
        "timestamp": "2025-12-26T06:43:29.799253+00:00",
        "meta_object_name": "FENGYUN 1C DEB",
        "meta_object_id": "1999-025DMQ",
        "meta_epoch": "2025-12-24T13:56:33.825120",
        "meta_mean_motion": 14.36001877,
        "meta_eccentricity": 0.01764255,
        "meta_inclination": 99.1558,
        "meta_ra_of_asc_node": 113.7491,
        "meta_arg_of_pericenter": 204.8514,
        "meta_mean_anomaly": 154.4098,
        "meta_ephemeris_type": 0,
        "meta_classification_type": "U",
        "meta_norad_cat_id": 35160,
        "meta_element_set_no": 999,
        "meta_rev_at_epoch": 65101,
        "meta_bstar": 0.00054836097,
        "meta_mean_motion_dot": 1.847e-05,
        "meta_mean_motion_ddot": 0,
        "tle_line1": "1 35160U 99025DMQ 25358.58094705  .00001847  00000+0  54836-3 0  9999",
        "tle_line2": "2 35160  99.1558 113.7491 0176425 204.8514 154.4098 14.36001877651010"
      },
      "geometry": {
        "type": "Point",
        "coordinates": [
          -56.03430248881369,
          42.2098981967123
        ]
      }
    }
  ]
}